THORAD AGENA D DEB      
1 04735U 70025CJ  26063.49942588  .04738231  31463-1  15129-1 0  9994
2 04735  99.5899  75.7881 0011684 165.9491 194.2105 15.95084858880507
COSMOS 886 DEB          
1 14501U 76126BN  26063.06446966  .03621939  17651-1  74543-2 0  9990
2 14501  65.6027 312.6177 0025121 190.1479 169.9192 16.01515849149773
IRIDIUM 51              
1 25262U 98018A   26063.94243990  .00765286  27478-3  13899-2 0  9997
2 25262  86.3512 283.1040 0017163 301.5567  58.4043 16.01249302487592
CZ-2D DEB               
1 31409U 05024J   26060.90543068  .00239460  23346-4  72484-3 0  9991
2 31409  97.1482 103.0739 0004089 145.2826 214.8716 15.92111318117181
ZIYUAN 3-01 (ZY 3-01)   
1 38046U 12001A   26063.81163568  .00474450  97324-4  10153-2 0  9995
2 38046  97.1557 138.4288 0002233 245.3925 114.7120 15.98596313787920
HUMSAT-D                
1 39433U 13066T   26063.50208078  .01235844  83493-3  21964-2 0  9996
2 39433  97.4826  76.1657 0007344 166.7356 193.4118 16.02000708670637
SPACEBEE-7              
1 43816U 18099BL  26063.18985420  .01688633  20345-2  22288-2 0  9998
2 43816  97.4390 149.6974 0008435 272.4852  87.5464 16.07262832398333
STARLINK-1112           
1 44925U 20001M   26063.94585365  .00821600  37145-3  97253-3 0  9998
2 44925  53.0327 265.6505 0005051 278.8220  81.2241 16.07965152340563
STARLINK-1298           
1 45413U 20019BF  26063.91668981  .00319928  50434-4  88622-3 0  9995
2 45413  53.0353  78.3564 0007155   2.7973  20.8858 15.93304054  6008
STARLINK-1398           
1 45699U 20035AU  26063.91668981  .00270359  38541-4  80555-3 0  9995
2 45699  53.0370 323.6394 0003963 147.0948  87.3450 15.91980187  5996
STARLINK-1484           
1 45756U 20038AC  26063.91668981  .00500745  11801-3  10312-2 0  9999
2 45756  52.9983  81.2858 0006613  43.5663  47.7477 15.98689127  6086
STARLINK-1587           
1 46157U 20057AS  26063.83336806  .00470250  96612-4  13967-2 0  9995
2 46157  53.0322 241.1946 0003330 258.2612 327.6694 15.91956023  6028
STARLINK-1738           
1 46336U 20062M   26063.88243546  .00687894  23105-3  11882-2 0  9997
2 46336  53.0271 305.2375 0005032 154.3747 205.7533 16.01763809304887
