[{"OBJECT_NAME":"THORAD AGENA D DEB","OBJECT_ID":"1970-025CJ","EPOCH":"2026-03-04T11:59:10.396032","MEAN_MOTION":15.95084858,"ECCENTRICITY":0.0011684,"INCLINATION":99.5899,"RA_OF_ASC_NODE":75.7881,"ARG_OF_PERICENTER":165.9491,"MEAN_ANOMALY":194.2105,"EPHEMERIS_TYPE":0,"CLASSIFICATION_TYPE":"U","NORAD_CAT_ID":4735,"ELEMENT_SET_NO":999,"REV_AT_EPOCH":88050,"BSTAR":0.015129128,"MEAN_MOTION_DOT":0.04738231,"MEAN_MOTION_DDOT":0.031463035},{"OBJECT_NAME":"COSMOS 886 DEB","OBJECT_ID":"1976-126BN","EPOCH":"2026-03-04T01:32:50.178624","MEAN_MOTION":16.01515849,"ECCENTRICITY":0.00251214,"INCLINATION":65.6027,"RA_OF_ASC_NODE":312.6177,"ARG_OF_PERICENTER":190.1479,"MEAN_ANOMALY":169.9192,"EPHEMERIS_TYPE":0,"CLASSIFICATION_TYPE":"U","NORAD_CAT_ID":14501,"ELEMENT_SET_NO":999,"REV_AT_EPOCH":14977,"BSTAR":0.0074543443,"MEAN_MOTION_DOT":0.03621939,"MEAN_MOTION_DDOT":0.017651121},{"OBJECT_NAME":"IRIDIUM 51","OBJECT_ID":"1998-018A","EPOCH":"2026-03-04T22:37:06.807360","MEAN_MOTION":16.01249302,"ECCENTRICITY":0.0017163,"INCLINATION":86.3512,"RA_OF_ASC_NODE":283.104,"ARG_OF_PERICENTER":301.5567,"MEAN_ANOMALY":58.4043,"EPHEMERIS_TYPE":0,"CLASSIFICATION_TYPE":"U","NORAD_CAT_ID":25262,"ELEMENT_SET_NO":999,"REV_AT_EPOCH":48759,"BSTAR":0.0013899,"MEAN_MOTION_DOT":0.00765286,"MEAN_MOTION_DDOT":0.00027478},{"OBJECT_NAME":"CZ-2D DEB","OBJECT_ID":"2005-024J","EPOCH":"2026-03-01T21:43:49.210752","MEAN_MOTION":15.92111318,"ECCENTRICITY":0.0004089,"INCLINATION":97.1482,"RA_OF_ASC_NODE":103.0739,"ARG_OF_PERICENTER":145.2826,"MEAN_ANOMALY":214.8716,"EPHEMERIS_TYPE":0,"CLASSIFICATION_TYPE":"U","NORAD_CAT_ID":31409,"ELEMENT_SET_NO":999,"REV_AT_EPOCH":11718,"BSTAR":0.00072484,"MEAN_MOTION_DOT":0.0023946,"MEAN_MOTION_DDOT":2.3346e-5},{"OBJECT_NAME":"ZIYUAN 3-01 (ZY 3-01)","OBJECT_ID":"2012-001A","EPOCH":"2026-03-04T19:28:45.322752","MEAN_MOTION":15.98596313,"ECCENTRICITY":0.0002233,"INCLINATION":97.1557,"RA_OF_ASC_NODE":138.4288,"ARG_OF_PERICENTER":245.3925,"MEAN_ANOMALY":114.712,"EPHEMERIS_TYPE":0,"CLASSIFICATION_TYPE":"U","NORAD_CAT_ID":38046,"ELEMENT_SET_NO":999,"REV_AT_EPOCH":78792,"BSTAR":0.0010153,"MEAN_MOTION_DOT":0.0047445,"MEAN_MOTION_DDOT":9.7324e-5},{"OBJECT_NAME":"HUMSAT-D","OBJECT_ID":"2013-066T","EPOCH":"2026-03-04T12:02:59.779392","MEAN_MOTION":16.02000708,"ECCENTRICITY":0.0007344,"INCLINATION":97.4826,"RA_OF_ASC_NODE":76.1657,"ARG_OF_PERICENTER":166.7356,"MEAN_ANOMALY":193.4118,"EPHEMERIS_TYPE":0,"CLASSIFICATION_TYPE":"U","NORAD_CAT_ID":39433,"ELEMENT_SET_NO":999,"REV_AT_EPOCH":67063,"BSTAR":0.0021964,"MEAN_MOTION_DOT":0.01235844,"MEAN_MOTION_DDOT":0.00083493},{"OBJECT_NAME":"SPACEBEE-7","OBJECT_ID":"2018-099BL","EPOCH":"2026-03-04T04:33:23.402880","MEAN_MOTION":16.07262832,"ECCENTRICITY":0.00084354,"INCLINATION":97.439,"RA_OF_ASC_NODE":149.6974,"ARG_OF_PERICENTER":272.4852,"MEAN_ANOMALY":87.5464,"EPHEMERIS_TYPE":0,"CLASSIFICATION_TYPE":"U","NORAD_CAT_ID":43816,"ELEMENT_SET_NO":999,"REV_AT_EPOCH":39833,"BSTAR":0.0022287651,"MEAN_MOTION_DOT":0.01688633,"MEAN_MOTION_DDOT":0.0020344783},{"OBJECT_NAME":"STARLINK-1112","OBJECT_ID":"2020-001M","EPOCH":"2026-03-04T22:42:01.755360","MEAN_MOTION":16.07965152,"ECCENTRICITY":0.0005051,"INCLINATION":53.0327,"RA_OF_ASC_NODE":265.6505,"ARG_OF_PERICENTER":278.822,"MEAN_ANOMALY":81.2241,"EPHEMERIS_TYPE":0,"CLASSIFICATION_TYPE":"U","NORAD_CAT_ID":44925,"ELEMENT_SET_NO":999,"REV_AT_EPOCH":34056,"BSTAR":0.00097253,"MEAN_MOTION_DOT":0.008216,"MEAN_MOTION_DDOT":0.00037145},{"OBJECT_NAME":"STARLINK-1298","OBJECT_ID":"2020-019BF","EPOCH":"2026-03-04T22:00:01.999584","MEAN_MOTION":15.93304054,"ECCENTRICITY":0.0007155,"INCLINATION":53.0353,"RA_OF_ASC_NODE":78.3564,"ARG_OF_PERICENTER":2.7973,"MEAN_ANOMALY":20.8858,"EPHEMERIS_TYPE":0,"CLASSIFICATION_TYPE":"U","NORAD_CAT_ID":45413,"ELEMENT_SET_NO":999,"REV_AT_EPOCH":600,"BSTAR":0.00088622,"MEAN_MOTION_DOT":0.00319928,"MEAN_MOTION_DDOT":5.0434e-5},{"OBJECT_NAME":"STARLINK-1398","OBJECT_ID":"2020-035AU","EPOCH":"2026-03-04T22:00:01.999584","MEAN_MOTION":15.91980187,"ECCENTRICITY":0.0003963,"INCLINATION":53.037,"RA_OF_ASC_NODE":323.6394,"ARG_OF_PERICENTER":147.0948,"MEAN_ANOMALY":87.345,"EPHEMERIS_TYPE":0,"CLASSIFICATION_TYPE":"U","NORAD_CAT_ID":45699,"ELEMENT_SET_NO":999,"REV_AT_EPOCH":599,"BSTAR":0.00080555,"MEAN_MOTION_DOT":0.00270359,"MEAN_MOTION_DDOT":3.8541e-5},{"OBJECT_NAME":"STARLINK-1484","OBJECT_ID":"2020-038AC","EPOCH":"2026-03-04T22:00:01.999584","MEAN_MOTION":15.98689127,"ECCENTRICITY":0.0006613,"INCLINATION":52.9983,"RA_OF_ASC_NODE":81.2858,"ARG_OF_PERICENTER":43.5663,"MEAN_ANOMALY":47.7477,"EPHEMERIS_TYPE":0,"CLASSIFICATION_TYPE":"U","NORAD_CAT_ID":45756,"ELEMENT_SET_NO":999,"REV_AT_EPOCH":608,"BSTAR":0.0010312,"MEAN_MOTION_DOT":0.00500745,"MEAN_MOTION_DDOT":0.00011801},{"OBJECT_NAME":"STARLINK-1587","OBJECT_ID":"2020-057AS","EPOCH":"2026-03-04T20:00:03.000384","MEAN_MOTION":15.91956023,"ECCENTRICITY":0.000333,"INCLINATION":53.0322,"RA_OF_ASC_NODE":241.1946,"ARG_OF_PERICENTER":258.2612,"MEAN_ANOMALY":327.6694,"EPHEMERIS_TYPE":0,"CLASSIFICATION_TYPE":"U","NORAD_CAT_ID":46157,"ELEMENT_SET_NO":999,"REV_AT_EPOCH":602,"BSTAR":0.0013967,"MEAN_MOTION_DOT":0.0047025,"MEAN_MOTION_DDOT":9.6612e-5},{"OBJECT_NAME":"STARLINK-1738","OBJECT_ID":"2020-062M","EPOCH":"2026-03-04T21:10:42.423744","MEAN_MOTION":16.01763809,"ECCENTRICITY":0.0005032,"INCLINATION":53.0271,"RA_OF_ASC_NODE":305.2375,"ARG_OF_PERICENTER":154.3747,"MEAN_ANOMALY":205.7533,"EPHEMERIS_TYPE":0,"CLASSIFICATION_TYPE":"U","NORAD_CAT_ID":46336,"ELEMENT_SET_NO":999,"REV_AT_EPOCH":30488,"BSTAR":0.0011882,"MEAN_MOTION_DOT":0.00687894,"MEAN_MOTION_DDOT":0.00023105}]
